CS2                     
1 49262U 21088C   26068.73485932  .00018033  00000+0  56178-3 0  9999
2 49262  97.3928 134.2907 0011637  82.3491 277.9072 15.33255930245263
STARLINK-30437          
1 58036U 23156J   26068.26676835 -.00000628  00000+0 -90727-5 0  9991
2 58036  53.1603  80.1618 0001127  92.6776 267.4354 15.30194159136205
